STARLINK-30540          
1 58002U 23153M   26067.99805799 -.00004302  00000+0 -15087-3 0  9990
2 58002  43.0033  70.6829 0000734 215.1985 144.8818 15.26723101134692
FLOCK 4G-8              
1 62613U 25009E   26068.72381419  .00013559  00000+0  50438-3 0  9996
2 62613  97.4045 151.2834 0003050 315.2538  44.8455 15.27623414 63721
